IRIDIUM 144             
1 43249U 18030A   25222.62115139 -.00000016  00000+0 -12852-4 0  9995
2 43249  86.3917  60.2310 0002046  91.4159 268.7271 14.34217147385622
IRIDIUM 149             
1 43250U 18030B   25222.62749318 -.00000003  00000+0 -81357-5 0  9992
2 43250  86.3915  60.1988 0002078  91.8036 268.3397 14.34217458385647
IRIDIUM 157             
1 43251U 18030C   25222.57675365 -.00000042  00000+0 -22001-4 0  9990
2 43251  86.3918  60.2663 0002181  84.4506 275.6939 14.34216954385617
IRIDIUM 140             
1 43252U 18030D   25222.59578047  .00000003  00000+0 -60118-5 0  9990
2 43252  86.3917  60.2719 0001935  92.9352 267.2065 14.34217345385676
IRIDIUM 145             
1 43253U 18030E   25222.58309658 -.00000065  00000+0 -30388-4 0  9994
2 43253  86.3917  60.2499 0002158  99.8445 260.2994 14.34216695385603
IRIDIUM 146             
1 43254U 18030F   25222.56406839 -.00000032  00000+0 -18565-4 0  9999
2 43254  86.3915  60.2710 0002102  98.5515 261.5919 14.34216958385615
IRIDIUM 148             
1 43255U 18030G   25222.60212445 -.00000039  00000+0 -20963-4 0  9995
2 43255  86.3917  60.2936 0002223  89.1276 271.0174 14.34216902385654
IRIDIUM 142             
1 43256U 18030H   25222.57041081 -.00000008  00000+0 -98952-5 0  9998
2 43256  86.3914  60.2072 0002227 101.7052 258.4393 14.34217234385617
